[{"OBJECT_NAME":"STARLINK-4332","OBJECT_ID":"2022-084B","EPOCH":"2026-03-09T15:18:09.286272","MEAN_MOTION":15.05645682,"ECCENTRICITY":6.38e-5,"INCLINATION":97.603,"RA_OF_ASC_NODE":131.1579,"ARG_OF_PERICENTER":159.7019,"MEAN_ANOMALY":200.4234,"EPHEMERIS_TYPE":0,"CLASSIFICATION_TYPE":"U","NORAD_CAT_ID":53190,"ELEMENT_SET_NO":999,"REV_AT_EPOCH":20004,"BSTAR":1.0623e-5,"MEAN_MOTION_DOT":9.3e-7,"MEAN_MOTION_DDOT":0},{"OBJECT_NAME":"SL-6 R\/B(2)","OBJECT_ID":"1990-055D","EPOCH":"2026-03-09T21:41:59.551872","MEAN_MOTION":15.03595553,"ECCENTRICITY":0.00247741,"INCLINATION":62.7825,"RA_OF_ASC_NODE":253.121,"ARG_OF_PERICENTER":347.1508,"MEAN_ANOMALY":12.8957,"EPHEMERIS_TYPE":0,"CLASSIFICATION_TYPE":"U","NORAD_CAT_ID":20666,"ELEMENT_SET_NO":999,"REV_AT_EPOCH":93822,"BSTAR":0.00020900577,"MEAN_MOTION_DOT":2.688e-5,"MEAN_MOTION_DDOT":0}]
